OBJECT_NAME,OBJECT_ID,EPOCH,MEAN_MOTION,ECCENTRICITY,INCLINATION,RA_OF_ASC_NODE,ARG_OF_PERICENTER,MEAN_ANOMALY,EPHEMERIS_TYPE,CLASSIFICATION_TYPE,NORAD_CAT_ID,ELEMENT_SET_NO,REV_AT_EPOCH,BSTAR,MEAN_MOTION_DOT,MEAN_MOTION_DDOT
STARLINK-37472,2026-111AA,2026-06-05T06:00:04.999968,15.80967859,.00010783,53.1587,211.2479,98.5457,326.1367,0,U,69172,999,362,-.57713151E-3,-.113616E-2,0
STARLINK-37461,2026-111AB,2026-06-05T06:00:04.999968,15.80931072,.000136,53.1585,211.2948,81.4490,320.7641,0,U,69173,999,362,-.48718223E-3,-.96051E-3,0
STARLINK-37333,2026-111AC,2026-06-05T06:00:04.999968,15.78083668,.0001496,53.1589,211.2994,65.4086,334.6340,0,U,69174,999,362,-.22352666E-3,-.39352E-3,0
STARLINK-37385,2026-111AD,2026-06-05T06:00:04.999968,15.80783486,.00008831,53.1585,211.2820,70.2524,338.1818,0,U,69175,999,362,.60351166E-3,.11958E-2,0
STARLINK-37414,2026-111AE,2026-06-05T06:00:04.999968,15.80866288,.00009977,53.1586,211.2659,88.4156,327.7457,0,U,69176,999,362,.2857899E-3,.56056E-3,0
STRIX-7,2026-112A,2026-06-05T06:17:57.092640,15.01364291,.00243843,44.9069,255.0779,340.1314,19.8606,0,U,69177,999,208,.32125461E-3,.3997E-4,0
SHENZHOU-23 (SZ-23),2026-113A,2026-06-05T01:46:04.270656,15.60275999,.00095692,41.4694,35.6942,344.8796,15.1755,0,U,69180,999,29125,.31557792E-3,.26328E-3,0
STARLINK-37380,2026-114A,2026-06-05T06:00:04.999968,15.78473835,.00011917,53.1589,262.0840,89.0137,273.2414,0,U,69182,999,289,-.37859068E-2,-.623887E-2,0
STARLINK-37089,2026-114B,2026-06-05T06:00:04.999968,15.78785538,.00005348,53.1591,262.0734,70.9243,296.4658,0,U,69183,999,289,-.6823981E-2,-.1099021E-1,0
STARLINK-37428,2026-114C,2026-06-05T06:00:04.999968,15.79853864,.00006337,53.1587,262.0591,76.2022,298.2558,0,U,69184,999,289,-.11841065E-1,-.1939355E-1,0
STARLINK-37237,2026-114D,2026-06-05T06:00:04.999968,15.81780301,.00008223,53.1589,262.0356,80.8207,304.7096,0,U,69185,999,289,-.10694281E-1,-.1919652E-1,0
STARLINK-37365,2026-114E,2026-06-05T06:00:04.999968,15.80673286,.00006829,53.1588,262.0336,84.4448,302.1299,0,U,69186,999,289,-.10006654E-1,-.1730581E-1,0
STARLINK-37209,2026-114F,2026-06-05T06:00:04.999968,15.80775583,.00009248,53.1589,262.0252,83.8290,306.8565,0,U,69187,999,289,-.10481542E-1,-.1810417E-1,0
STARLINK-37359,2026-114G,2026-06-05T06:00:04.999968,15.80476361,.00007102,53.1592,262.0185,69.8747,323.9653,0,U,69188,999,289,-.99986612E-2,-.171544E-1,0
STARLINK-37440,2026-114H,2026-06-05T06:00:04.999968,15.88815403,.00010759,53.1569,261.7292,77.5803,95.6352,0,U,69189,999,289,-.54809217E-2,-.1388222E-1,0
STARLINK-37282,2026-114J,2026-06-05T06:00:04.999968,15.80851409,.00007973,53.1589,261.9988,92.4347,310.8229,0,U,69190,999,289,.1931385E-3,.37548E-3,0
STARLINK-37422,2026-114K,2026-06-05T06:00:04.999968,15.82683121,.00008743,53.1584,261.9819,81.7954,329.7261,0,U,69191,999,289,-.89803453E-2,-.1675608E-1,0
STARLINK-37424,2026-114L,2026-06-05T06:00:04.999968,15.80795304,.00011023,53.1590,261.9905,82.8916,324.6418,0,U,69192,999,289,.98226181E-3,.196944E-2,0
STARLINK-36666,2026-114M,2026-06-05T06:00:04.999968,15.80840961,.00008792,53.1591,261.9816,61.6341,350.1710,0,U,69193,999,289,.38692781E-3,.76231E-3,0
STARLINK-37355,2026-114N,2026-06-05T06:00:04.999968,15.80820719,.00010599,53.1590,261.9729,94.6195,321.4545,0,U,69194,999,289,.71374298E-3,.142168E-2,0
STARLINK-37166,2026-114P,2026-06-05T06:00:04.999968,15.80930872,.00011513,53.1590,261.9548,66.6535,357.9111,0,U,69195,999,289,-.36138437E-3,-.71626E-3,0
STARLINK-36933,2026-114Q,2026-06-05T06:00:04.999968,15.80793656,.00012201,53.1590,261.9640,100.8920,319.4456,0,U,69196,999,289,.11061642E-2,.222523E-2,0
STARLINK-37419,2026-114R,2026-06-05T06:00:04.999968,15.81047433,.00008506,53.1590,261.9465,91.2263,337.5548,0,U,69197,999,289,-.11539473E-2,-.224431E-2,0
STARLINK-37321,2026-114S,2026-06-05T06:00:04.999968,15.81231906,.00010966,53.1589,261.9381,77.2021,355.7590,0,U,69198,999,289,-.2727857E-2,-.516662E-2,0
STARLINK-37406,2026-114T,2026-06-05T06:00:04.999968,15.81414502,.00005988,53.1588,261.9293,69.7805,7.3589,0,U,69199,999,289,-.44604209E-2,-.822068E-2,0
STARLINK-37761,2026-114U,2026-06-05T06:00:04.999968,15.81615188,.00012012,53.1589,261.9203,98.4294,342.8510,0,U,69200,999,289,-.55659112E-2,-.101244E-1,0
STARLINK-37754,2026-114V,2026-06-05T06:00:04.999968,15.81422284,.0000577,53.1590,261.9094,47.3750,39.4058,0,U,69201,999,289,-.44115882E-2,-.814119E-2,0
