STARLINK-37472          
1 69172U 26111AA  26156.25005787 -.00113616  00000+0 -57713-3 0  9995
2 69172  53.1587 211.2479 0001078  98.5457 326.1367 15.80967859  3623
STARLINK-37461          
1 69173U 26111AB  26156.25005787 -.00096051  00000+0 -48718-3 0  9994
2 69173  53.1585 211.2948 0001360  81.4490 320.7641 15.80931072  3628
STARLINK-37333          
1 69174U 26111AC  26156.25005787 -.00039352  00000+0 -22353-3 0  9993
2 69174  53.1589 211.2994 0001496  65.4086 334.6340 15.78083668  3623
STARLINK-37385          
1 69175U 26111AD  26156.25005787  .00119580  00000+0  60351-3 0  9994
2 69175  53.1585 211.2820 0000883  70.2524 338.1818 15.80783486  3625
STARLINK-37414          
1 69176U 26111AE  26156.25005787  .00056056  00000+0  28579-3 0  9999
2 69176  53.1586 211.2659 0000997  88.4156 327.7457 15.80866288  3620
STRIX-7                 
1 69177U 26112A   26156.26246635  .00003997  00000+0  32125-3 0  9999
2 69177  44.9069 255.0779 0024384 340.1314  19.8606 15.01364291  2088
SHENZHOU-23 (SZ-23)     
1 69180U 26113A   26156.07366054  .00026328  00000+0  31558-3 0  9993
2 69180  41.4694  35.6942 0009569 344.8796  15.1755 15.60275999291259
STARLINK-37380          
1 69182U 26114A   26156.25005787 -.00623887  00000+0 -37859-2 0  9993
2 69182  53.1589 262.0840 0001191  89.0137 273.2414 15.78473835  2894
STARLINK-37089          
1 69183U 26114B   26156.25005787 -.01099021  00000+0 -68240-2 0  9990
2 69183  53.1591 262.0734 0000534  70.9243 296.4658 15.78785538  2890
STARLINK-37428          
1 69184U 26114C   26156.25005787 -.01939355  00000+0 -11841-1 0  9998
2 69184  53.1587 262.0591 0000633  76.2022 298.2558 15.79853864  2899
STARLINK-37237          
1 69185U 26114D   26156.25005787 -.01919652  00000+0 -10694-1 0  9992
2 69185  53.1589 262.0356 0000822  80.8207 304.7096 15.81780301  2895
STARLINK-37365          
1 69186U 26114E   26156.25005787 -.01730581  00000+0 -10007-1 0  9993
2 69186  53.1588 262.0336 0000682  84.4448 302.1299 15.80673286  2893
STARLINK-37209          
1 69187U 26114F   26156.25005787 -.01810417  00000+0 -10482-1 0  9998
2 69187  53.1589 262.0252 0000924  83.8290 306.8565 15.80775583  2899
STARLINK-37359          
1 69188U 26114G   26156.25005787 -.01715440  00000+0 -99987-2 0  9997
2 69188  53.1592 262.0185 0000710  69.8747 323.9653 15.80476361  2893
STARLINK-37440          
1 69189U 26114H   26156.25005787 -.01388222  00000+0 -54809-2 0  9996
2 69189  53.1569 261.7292 0001075  77.5803  95.6352 15.88815403  2898
STARLINK-37282          
1 69190U 26114J   26156.25005787  .00037548  00000+0  19314-3 0  9990
2 69190  53.1589 261.9988 0000797  92.4347 310.8229 15.80851409  2898
STARLINK-37422          
1 69191U 26114K   26156.25005787 -.01675608  00000+0 -89803-2 0  9998
2 69191  53.1584 261.9819 0000874  81.7954 329.7261 15.82683121  2899
STARLINK-37424          
1 69192U 26114L   26156.25005787  .00196944  00000+0  98226-3 0  9997
2 69192  53.1590 261.9905 0001102  82.8916 324.6418 15.80795304  2891
STARLINK-36666          
1 69193U 26114M   26156.25005787  .00076231  00000+0  38693-3 0  9996
2 69193  53.1591 261.9816 0000879  61.6341 350.1710 15.80840961  2890
STARLINK-37355          
1 69194U 26114N   26156.25005787  .00142168  00000+0  71374-3 0  9993
2 69194  53.1590 261.9729 0001059  94.6195 321.4545 15.80820719  2893
STARLINK-37166          
1 69195U 26114P   26156.25005787 -.00071626  00000+0 -36138-3 0  9995
2 69195  53.1590 261.9548 0001151  66.6535 357.9111 15.80930872  2898
STARLINK-36933          
1 69196U 26114Q   26156.25005787  .00222523  00000+0  11062-2 0  9996
2 69196  53.1590 261.9640 0001220 100.8920 319.4456 15.80793656  2890
STARLINK-37419          
1 69197U 26114R   26156.25005787 -.00224431  00000+0 -11539-2 0  9998
2 69197  53.1590 261.9465 0000850  91.2263 337.5548 15.81047433  2896
STARLINK-37321          
1 69198U 26114S   26156.25005787 -.00516662  00000+0 -27279-2 0  9997
2 69198  53.1589 261.9381 0001096  77.2021 355.7590 15.81231906  2890
STARLINK-37406          
1 69199U 26114T   26156.25005787 -.00822068  00000+0 -44604-2 0  9999
2 69199  53.1588 261.9293 0000598  69.7805   7.3589 15.81414502  2897
STARLINK-37761          
1 69200U 26114U   26156.25005787 -.01012440  00000+0 -55659-2 0  9990
2 69200  53.1589 261.9203 0001201  98.4294 342.8510 15.81615188  2899
STARLINK-37754          
1 69201U 26114V   26156.25005787 -.00814119  00000+0 -44116-2 0  9999
2 69201  53.1590 261.9094 0000577  47.3750  39.4058 15.81422284  2894
